{
  "type": "FeatureCollection",
  "features": [
    {
      "type": "Feature",
      "properties": {
        "norad_id": 24876,
        "name": "GPS BIIR-2  (PRN 13)",
        "group": "gps-ops",
        "lat": 55.44726509541017,
        "lon": -174.1651681471723,
        "alt_km": 19947.191939858298,
        "timestamp": "2025-12-03T08:58:46.254461+00:00",
        "meta_object_name": "GPS BIIR-2  (PRN 13)",
        "meta_object_id": "1997-035A",
        "meta_epoch": "2025-12-02T18:15:55.323936",
        "meta_mean_motion": 2.00563441,
        "meta_eccentricity": 0.0096674,
        "meta_inclination": 55.8903,
        "meta_ra_of_asc_node": 106.2592,
        "meta_arg_of_pericenter": 57.0206,
        "meta_mean_anomaly": 303.8747,
        "meta_ephemeris_type": 0,
        "meta_classification_type": "U",
        "meta_norad_cat_id": 24876,
        "meta_element_set_no": 999,
        "meta_rev_at_epoch": 20801,
        "meta_bstar": 0,
        "meta_mean_motion_dot": 2.2e-07,
        "meta_mean_motion_ddot": 0,
        "tle_line1": "1 24876U 97035A   25336.76105699  .00000022  00000+0  00000+0 0  9995",
        "tle_line2": "2 24876  55.8903 106.2592 0096674  57.0206 303.8747  2.00563441208014"
      },
      "geometry": {
        "type": "Point",
        "coordinates": [
          -174.1651681471723,
          55.44726509541017
        ]
      }
    },
    {
      "type": "Feature",
      "properties": {
        "norad_id": 26360,
        "name": "GPS BIIR-4  (PRN 20)",
        "group": "gps-ops",
        "lat": 4.125829998837872,
        "lon": -155.6546769265423,
        "alt_km": 20139.298769370613,
        "timestamp": "2025-12-03T08:58:46.254496+00:00",
        "meta_object_name": "GPS BIIR-4  (PRN 20)",
        "meta_object_id": "2000-025A",
        "meta_epoch": "2025-12-03T03:04:06.899232",
        "meta_mean_motion": 2.00568338,
        "meta_eccentricity": 0.0038784,
        "meta_inclination": 55.0395,
        "meta_ra_of_asc_node": 27.2269,
        "meta_arg_of_pericenter": 241.0444,
        "meta_mean_anomaly": 116.4952,
        "meta_ephemeris_type": 0,
        "meta_classification_type": "U",
        "meta_norad_cat_id": 26360,
        "meta_element_set_no": 999,
        "meta_rev_at_epoch": 18733,
        "meta_bstar": 0,
        "meta_mean_motion_dot": -7e-07,
        "meta_mean_motion_ddot": 0,
        "tle_line1": "1 26360U 00025A   25337.12785763 -.00000070  00000+0  00000+0 0  9999",
        "tle_line2": "2 26360  55.0395  27.2269 0038784 241.0444 116.4952  2.00568338187338"
      },
      "geometry": {
        "type": "Point",
        "coordinates": [
          -155.6546769265423,
          4.125829998837872
        ]
      }
    },
    {
      "type": "Feature",
      "properties": {
        "norad_id": 26407,
        "name": "GPS BIIR-5  (PRN 22)",
        "group": "gps-ops",
        "lat": 13.241989820452043,
        "lon": -127.53771857623232,
        "alt_km": 20087.16665802461,
        "timestamp": "2025-12-03T08:58:46.254513+00:00",
        "meta_object_name": "GPS BIIR-5  (PRN 22)",
        "meta_object_id": "2000-040A",
        "meta_epoch": "2025-12-02T20:35:05.713728",
        "meta_mean_motion": 2.00567701,
        "meta_eccentricity": 0.0126556,
        "meta_inclination": 54.8933,
        "meta_ra_of_asc_node": 222.9621,
        "meta_arg_of_pericenter": 301.6247,
        "meta_mean_anomaly": 60.4206,
        "meta_ephemeris_type": 0,
        "meta_classification_type": "U",
        "meta_norad_cat_id": 26407,
        "meta_element_set_no": 999,
        "meta_rev_at_epoch": 18601,
        "meta_bstar": 0,
        "meta_mean_motion_dot": 5.8e-07,
        "meta_mean_motion_ddot": 0,
        "tle_line1": "1 26407U 00040A   25336.85770502  .00000058  00000+0  00000+0 0  9997",
        "tle_line2": "2 26407  54.8933 222.9621 0126556 301.6247  60.4206  2.00567701186017"
      },
      "geometry": {
        "type": "Point",
        "coordinates": [
          -127.53771857623232,
          13.241989820452043
        ]
      }
    },
    {
      "type": "Feature",
      "properties": {
        "norad_id": 27663,
        "name": "GPS BIIR-8  (PRN 16)",
        "group": "gps-ops",
        "lat": 22.32711119640169,
        "lon": 26.004937696414405,
        "alt_km": 20245.738936000267,
        "timestamp": "2025-12-03T08:58:46.254528+00:00",
        "meta_object_name": "GPS BIIR-8  (PRN 16)",
        "meta_object_id": "2003-005A",
        "meta_epoch": "2025-12-02T07:21:58.833216",
        "meta_mean_motion": 2.00571367,
        "meta_eccentricity": 0.014703,
        "meta_inclination": 54.9261,
        "meta_ra_of_asc_node": 222.7933,
        "meta_arg_of_pericenter": 51.6544,
        "meta_mean_anomaly": 48.4553,
        "meta_ephemeris_type": 0,
        "meta_classification_type": "U",
        "meta_norad_cat_id": 27663,
        "meta_element_set_no": 999,
        "meta_rev_at_epoch": 16736,
        "meta_bstar": 0,
        "meta_mean_motion_dot": 5.5e-07,
        "meta_mean_motion_ddot": 0,
        "tle_line1": "1 27663U 03005A   25336.30693094  .00000055  00000+0  00000+0 0  9993",
        "tle_line2": "2 27663  54.9261 222.7933 0147030  51.6544  48.4553  2.00571367167364"
      },
      "geometry": {
        "type": "Point",
        "coordinates": [
          26.004937696414405,
          22.32711119640169
        ]
      }
    },
    {
      "type": "Feature",
      "properties": {
        "norad_id": 28190,
        "name": "GPS BIIR-11 (PRN 19)",
        "group": "gps-ops",
        "lat": -38.468939071361845,
        "lon": -110.22091047929392,
        "alt_km": 20415.826128427543,
        "timestamp": "2025-12-03T08:58:46.254542+00:00",
        "meta_object_name": "GPS BIIR-11 (PRN 19)",
        "meta_object_id": "2004-009A",
        "meta_epoch": "2025-11-26T05:14:39.537024",
        "meta_mean_motion": 2.00561394,
        "meta_eccentricity": 0.01080929,
        "meta_inclination": 55.0011,
        "meta_ra_of_asc_node": 283.885,
        "meta_arg_of_pericenter": 167.3745,
        "meta_mean_anomaly": 15.773,
        "meta_ephemeris_type": 0,
        "meta_classification_type": "U",
        "meta_norad_cat_id": 28190,
        "meta_element_set_no": 999,
        "meta_rev_at_epoch": 15887,
        "meta_bstar": 0,
        "meta_mean_motion_dot": -2.4e-07,
        "meta_mean_motion_ddot": 0,
        "tle_line1": "1 28190U 04009A   25330.21851316 -.00000024  00000+0  00000+0 0  9998",
        "tle_line2": "2 28190  55.0011 283.8850 0108092 167.3745  15.7730  2.00561394158873"
      },
      "geometry": {
        "type": "Point",
        "coordinates": [
          -110.22091047929392,
          -38.468939071361845
        ]
      }
    },
    {
      "type": "Feature",
      "properties": {
        "norad_id": 28474,
        "name": "GPS BIIR-13 (PRN 02)",
        "group": "gps-ops",
        "lat": 9.328029716875431,
        "lon": -20.67251554877812,
        "alt_km": 19967.01379534359,
        "timestamp": "2025-12-03T08:58:46.254555+00:00",
        "meta_object_name": "GPS BIIR-13 (PRN 02)",
        "meta_object_id": "2004-045A",
        "meta_epoch": "2025-12-02T14:51:16.747776",
        "meta_mean_motion": 2.00568864,
        "meta_eccentricity": 0.017054,
        "meta_inclination": 55.2456,
        "meta_ra_of_asc_node": 332.8132,
        "meta_arg_of_pericenter": 308.8127,
        "meta_mean_anomaly": 235.5488,
        "meta_ephemeris_type": 0,
        "meta_classification_type": "U",
        "meta_norad_cat_id": 28474,
        "meta_element_set_no": 999,
        "meta_rev_at_epoch": 15448,
        "meta_bstar": 0,
        "meta_mean_motion_dot": -6.2e-07,
        "meta_mean_motion_ddot": 0,
        "tle_line1": "1 28474U 04045A   25336.61894384 -.00000062  00000+0  00000+0 0  9997",
        "tle_line2": "2 28474  55.2456 332.8132 0170540 308.8127 235.5488  2.00568864154488"
      },
      "geometry": {
        "type": "Point",
        "coordinates": [
          -20.67251554877812,
          9.328029716875431
        ]
      }
    },
    {
      "type": "Feature",
      "properties": {
        "norad_id": 28874,
        "name": "GPS BIIRM-1 (PRN 17)",
        "group": "gps-ops",
        "lat": -24.806564418130716,
        "lon": -97.78821126310363,
        "alt_km": 19898.514133271437,
        "timestamp": "2025-12-03T08:58:46.254567+00:00",
        "meta_object_name": "GPS BIIRM-1 (PRN 17)",
        "meta_object_id": "2005-038A",
        "meta_epoch": "2025-12-02T16:12:27.400896",
        "meta_mean_motion": 2.00548806,
        "meta_eccentricity": 0.01328204,
        "meta_inclination": 55.0411,
        "meta_ra_of_asc_node": 281.1063,
        "meta_arg_of_pericenter": 293.4087,
        "meta_mean_anomaly": 250.3584,
        "meta_ephemeris_type": 0,
        "meta_classification_type": "U",
        "meta_norad_cat_id": 28874,
        "meta_element_set_no": 999,
        "meta_rev_at_epoch": 14789,
        "meta_bstar": 0,
        "meta_mean_motion_dot": -4.3e-07,
        "meta_mean_motion_ddot": 0,
        "tle_line1": "1 28874U 05038A   25336.67531714 -.00000043  00000+0  00000+0 0  9994",
        "tle_line2": "2 28874  55.0411 281.1063 0132820 293.4087 250.3584  2.00548806147896"
      },
      "geometry": {
        "type": "Point",
        "coordinates": [
          -97.78821126310363,
          -24.806564418130716
        ]
      }
    }
  ]
}